{
  "type": "FeatureCollection",
  "features": [
    {
      "type": "Feature",
      "properties": {
        "norad_id": 26766,
        "name": "INTELSAT 10 (IS-10)",
        "group": "intelsat",
        "lat": -7.288941904530245,
        "lon": -62.03125309174317,
        "alt_km": 36093.302710772994,
        "timestamp": "2025-12-24T07:45:05.866113+00:00",
        "meta_object_name": "INTELSAT 10 (IS-10)",
        "meta_object_id": "2001-019A",
        "meta_epoch": "2025-12-23T20:29:28.496256",
        "meta_mean_motion": 0.9907274,
        "meta_eccentricity": 0.00078795,
        "meta_inclination": 8.6541,
        "meta_ra_of_asc_node": 61.0445,
        "meta_arg_of_pericenter": 229.3993,
        "meta_mean_anomaly": 200.4709,
        "meta_ephemeris_type": 0,
        "meta_classification_type": "U",
        "meta_norad_cat_id": 26766,
        "meta_element_set_no": 999,
        "meta_rev_at_epoch": 4384,
        "meta_bstar": 0,
        "meta_mean_motion_dot": -1.1e-07,
        "meta_mean_motion_ddot": 0,
        "tle_line1": "1 26766U 01019A   25357.85380204 -.00000011  00000+0  00000+0 0  9991",
        "tle_line2": "2 26766   8.6541  61.0445 0007879 229.3993 200.4709  0.99072740 43840"
      },
      "geometry": {
        "type": "Point",
        "coordinates": [
          -62.03125309174317,
          -7.288941904530245
        ]
      }
    },
    {
      "type": "Feature",
      "properties": {
        "norad_id": 26900,
        "name": "INTELSAT 902 (IS-902)",
        "group": "intelsat",
        "lat": 5.6707893560206255,
        "lon": 159.11352799267135,
        "alt_km": 35791.40423251582,
        "timestamp": "2025-12-24T07:45:05.866136+00:00",
        "meta_object_name": "INTELSAT 902 (IS-902)",
        "meta_object_id": "2001-039A",
        "meta_epoch": "2025-12-15T13:09:02.081664",
        "meta_mean_motion": 1.0027087,
        "meta_eccentricity": 0.00045028,
        "meta_inclination": 5.6536,
        "meta_ra_of_asc_node": 74.0372,
        "meta_arg_of_pericenter": 189.6359,
        "meta_mean_anomaly": 327.9329,
        "meta_ephemeris_type": 0,
        "meta_classification_type": "U",
        "meta_norad_cat_id": 26900,
        "meta_element_set_no": 999,
        "meta_rev_at_epoch": 8885,
        "meta_bstar": 0,
        "meta_mean_motion_dot": -2.65e-06,
        "meta_mean_motion_ddot": 0,
        "tle_line1": "1 26900U 01039A   25349.54794076 -.00000265  00000+0  00000+0 0  9997",
        "tle_line2": "2 26900   5.6536  74.0372 0004502 189.6359 327.9329  1.00270870 88858"
      },
      "geometry": {
        "type": "Point",
        "coordinates": [
          159.11352799267135,
          5.6707893560206255
        ]
      }
    },
    {
      "type": "Feature",
      "properties": {
        "norad_id": 27380,
        "name": "INTELSAT 904 (IS-904)",
        "group": "intelsat",
        "lat": 6.221883455259708,
        "lon": 177.97215447538042,
        "alt_km": 35790.629135183895,
        "timestamp": "2025-12-24T07:45:05.866152+00:00",
        "meta_object_name": "INTELSAT 904 (IS-904)",
        "meta_object_id": "2002-007A",
        "meta_epoch": "2025-12-23T11:16:19.539840",
        "meta_mean_motion": 1.00273546,
        "meta_eccentricity": 0.00018643,
        "meta_inclination": 6.4798,
        "meta_ra_of_asc_node": 71.3095,
        "meta_arg_of_pericenter": 244.0709,
        "meta_mean_anomaly": 274.4665,
        "meta_ephemeris_type": 0,
        "meta_classification_type": "U",
        "meta_norad_cat_id": 27380,
        "meta_element_set_no": 999,
        "meta_rev_at_epoch": 5000,
        "meta_bstar": 0,
        "meta_mean_motion_dot": -2.07e-06,
        "meta_mean_motion_ddot": 0,
        "tle_line1": "1 27380U 02007A   25357.46967060 -.00000207  00000+0  00000+0 0  9997",
        "tle_line2": "2 27380   6.4798  71.3095 0001864 244.0709 274.4665  1.00273546 50003"
      },
      "geometry": {
        "type": "Point",
        "coordinates": [
          177.97215447538042,
          6.221883455259708
        ]
      }
    },
    {
      "type": "Feature",
      "properties": {
        "norad_id": 27426,
        "name": "DIRECTV 5 (TEMPO 1)",
        "group": "intelsat",
        "lat": 1.6601984378500263,
        "lon": 99.19224902478702,
        "alt_km": 35799.70872376905,
        "timestamp": "2025-12-24T07:45:05.866166+00:00",
        "meta_object_name": "DIRECTV 5 (TEMPO 1)",
        "meta_object_id": "2002-023A",
        "meta_epoch": "2025-12-23T16:01:57.619200",
        "meta_mean_motion": 1.00271663,
        "meta_eccentricity": 0.0003261,
        "meta_inclination": 4.4282,
        "meta_ra_of_asc_node": 77.5248,
        "meta_arg_of_pericenter": 202.2662,
        "meta_mean_anomaly": 303.0349,
        "meta_ephemeris_type": 0,
        "meta_classification_type": "U",
        "meta_norad_cat_id": 27426,
        "meta_element_set_no": 999,
        "meta_rev_at_epoch": 8636,
        "meta_bstar": 0,
        "meta_mean_motion_dot": -3.8e-07,
        "meta_mean_motion_ddot": 0,
        "tle_line1": "1 27426U 02023A   25357.66802800 -.00000038  00000+0  00000+0 0  9990",
        "tle_line2": "2 27426   4.4282  77.5248 0003261 202.2662 303.0349  1.00271663 86369"
      },
      "geometry": {
        "type": "Point",
        "coordinates": [
          99.19224902478702,
          1.6601984378500263
        ]
      }
    },
    {
      "type": "Feature",
      "properties": {
        "norad_id": 27438,
        "name": "INTELSAT 905 (IS-905)",
        "group": "intelsat",
        "lat": 0.044647087639194706,
        "lon": 72.19047759877718,
        "alt_km": 35796.01261753553,
        "timestamp": "2025-12-24T07:45:05.866179+00:00",
        "meta_object_name": "INTELSAT 905 (IS-905)",
        "meta_object_id": "2002-027A",
        "meta_epoch": "2025-12-23T05:41:27.377952",
        "meta_mean_motion": 1.00273243,
        "meta_eccentricity": 0.00027491,
        "meta_inclination": 6.3102,
        "meta_ra_of_asc_node": 71.9349,
        "meta_arg_of_pericenter": 206.5226,
        "meta_mean_anomaly": 121.7385,
        "meta_ephemeris_type": 0,
        "meta_classification_type": "U",
        "meta_norad_cat_id": 27438,
        "meta_element_set_no": 999,
        "meta_rev_at_epoch": 4959,
        "meta_bstar": 0,
        "meta_mean_motion_dot": 1.12e-06,
        "meta_mean_motion_ddot": 0,
        "tle_line1": "1 27438U 02027A   25357.23712243  .00000112  00000+0  00000+0 0  9993",
        "tle_line2": "2 27438   6.3102  71.9349 0002749 206.5226 121.7385  1.00273243 49592"
      },
      "geometry": {
        "type": "Point",
        "coordinates": [
          72.19047759877718,
          0.044647087639194706
        ]
      }
    },
    {
      "type": "Feature",
      "properties": {
        "norad_id": 27445,
        "name": "GALAXY 3C (G-3C)",
        "group": "intelsat",
        "lat": 1.867323705886692,
        "lon": 114.46000301732518,
        "alt_km": 35782.89421622894,
        "timestamp": "2025-12-24T07:45:05.866191+00:00",
        "meta_object_name": "GALAXY 3C (G-3C)",
        "meta_object_id": "2002-030A",
        "meta_epoch": "2025-12-23T19:31:44.704704",
        "meta_mean_motion": 1.00271484,
        "meta_eccentricity": 0.00011099,
        "meta_inclination": 3.2897,
        "meta_ra_of_asc_node": 80.3883,
        "meta_arg_of_pericenter": 83.376,
        "meta_mean_anomaly": 126.9143,
        "meta_ephemeris_type": 0,
        "meta_classification_type": "U",
        "meta_norad_cat_id": 27445,
        "meta_element_set_no": 999,
        "meta_rev_at_epoch": 4473,
        "meta_bstar": 0,
        "meta_mean_motion_dot": -1.33e-06,
        "meta_mean_motion_ddot": 0,
        "tle_line1": "1 27445U 02030A   25357.81371186 -.00000133  00000+0  00000+0 0  9990",
        "tle_line2": "2 27445   3.2897  80.3883 0001109  83.3760 126.9143  1.00271484 44732"
      },
      "geometry": {
        "type": "Point",
        "coordinates": [
          114.46000301732518,
          1.867323705886692
        ]
      }
    },
    {
      "type": "Feature",
      "properties": {
        "norad_id": 27513,
        "name": "INTELSAT 906 (IS-906)",
        "group": "intelsat",
        "lat": -1.7114987973736167,
        "lon": -86.55806858773579,
        "alt_km": 35759.241435404816,
        "timestamp": "2025-12-24T07:45:05.866204+00:00",
        "meta_object_name": "INTELSAT 906 (IS-906)",
        "meta_object_id": "2002-041A",
        "meta_epoch": "2025-12-23T18:34:28.015104",
        "meta_mean_motion": 1.00273398,
        "meta_eccentricity": 0.00062905,
        "meta_inclination": 5.3577,
        "meta_ra_of_asc_node": 75.1001,
        "meta_arg_of_pericenter": 202.0184,
        "meta_mean_anomaly": 158.2022,
        "meta_ephemeris_type": 0,
        "meta_classification_type": "U",
        "meta_norad_cat_id": 27513,
        "meta_element_set_no": 999,
        "meta_rev_at_epoch": 8527,
        "meta_bstar": 0,
        "meta_mean_motion_dot": 3.1e-07,
        "meta_mean_motion_ddot": 0,
        "tle_line1": "1 27513U 02041A   25357.77393536  .00000031  00000+0  00000+0 0  9992",
        "tle_line2": "2 27513   5.3577  75.1001 0006290 202.0184 158.2022  1.00273398 85270"
      },
      "geometry": {
        "type": "Point",
        "coordinates": [
          -86.55806858773579,
          -1.7114987973736167
        ]
      }
    }
  ]
}